CCSDS_OMM_VERS = 2.0
CREATION_DATE  = 
ORIGINATOR     = 

OBJECT_NAME    = CZ-6A R/B
OBJECT_ID      = 2026-051B
CENTER_NAME    = EARTH
REF_FRAME      = TEME
TIME_SYSTEM    = UTC
MEAN_ELEMENT_THEORY = SGP/SGP4

EPOCH          = 2026-04-05T10:57:03.554496
MEAN_MOTION    = 14.56386550
ECCENTRICITY   = .0187399
INCLINATION    = 142.0302
RA_OF_ASC_NODE = 348.0785
ARG_OF_PERICENTER = 243.9783
MEAN_ANOMALY   = 114.1543

EPHEMERIS_TYPE = 0
CLASSIFICATION_TYPE = U
NORAD_CAT_ID   = 68197
ELEMENT_SET_NO = 999
REV_AT_EPOCH   = 306
BSTAR          = .17561E-3
MEAN_MOTION_DOT = .13E-4
MEAN_MOTION_DDOT = 0

CCSDS_OMM_VERS = 2.0
CREATION_DATE  = 
ORIGINATOR     = 

OBJECT_NAME    = 2026-052A
OBJECT_ID      = 2026-052A
CENTER_NAME    = EARTH
REF_FRAME      = TEME
TIME_SYSTEM    = UTC
MEAN_ELEMENT_THEORY = SGP/SGP4

EPOCH          = 2026-04-05T11:55:05.483136
MEAN_MOTION    = 15.10084473
ECCENTRICITY   = .0013716
INCLINATION    = 97.5352
RA_OF_ASC_NODE = 171.4190
ARG_OF_PERICENTER = 191.9784
MEAN_ANOMALY   = 168.1121

EPHEMERIS_TYPE = 0
CLASSIFICATION_TYPE = U
NORAD_CAT_ID   = 68198
ELEMENT_SET_NO = 999
REV_AT_EPOCH   = 307
BSTAR          = .66326E-3
MEAN_MOTION_DOT = .10769E-3
MEAN_MOTION_DDOT = 0

CCSDS_OMM_VERS = 2.0
CREATION_DATE  = 
ORIGINATOR     = 

OBJECT_NAME    = YUXING-3 06
OBJECT_ID      = 2026-052B
CENTER_NAME    = EARTH
REF_FRAME      = TEME
TIME_SYSTEM    = UTC
MEAN_ELEMENT_THEORY = SGP/SGP4

EPOCH          = 2026-04-05T07:05:53.401344
MEAN_MOTION    = 15.10207543
ECCENTRICITY   = .0012704
INCLINATION    = 97.5353
RA_OF_ASC_NODE = 171.2256
ARG_OF_PERICENTER = 193.8578
MEAN_ANOMALY   = 166.2305

EPHEMERIS_TYPE = 0
CLASSIFICATION_TYPE = U
NORAD_CAT_ID   = 68199
ELEMENT_SET_NO = 999
REV_AT_EPOCH   = 304
BSTAR          = .49699362E-3
MEAN_MOTION_DOT = .8076E-4
MEAN_MOTION_DDOT = 0

CCSDS_OMM_VERS = 2.0
CREATION_DATE  = 
ORIGINATOR     = 

OBJECT_NAME    = 2026-052C
OBJECT_ID      = 2026-052C
CENTER_NAME    = EARTH
REF_FRAME      = TEME
TIME_SYSTEM    = UTC
MEAN_ELEMENT_THEORY = SGP/SGP4

EPOCH          = 2026-04-05T11:49:40.494720
MEAN_MOTION    = 15.10321024
ECCENTRICITY   = .0012414
INCLINATION    = 97.5351
RA_OF_ASC_NODE = 171.4238
ARG_OF_PERICENTER = 195.5113
MEAN_ANOMALY   = 164.5737

EPHEMERIS_TYPE = 0
CLASSIFICATION_TYPE = U
NORAD_CAT_ID   = 68200
ELEMENT_SET_NO = 999
REV_AT_EPOCH   = 306
BSTAR          = .44838E-3
MEAN_MOTION_DOT = .7301E-4
MEAN_MOTION_DDOT = 0

CCSDS_OMM_VERS = 2.0
CREATION_DATE  = 
ORIGINATOR     = 

OBJECT_NAME    = 2026-052D
OBJECT_ID      = 2026-052D
CENTER_NAME    = EARTH
REF_FRAME      = TEME
TIME_SYSTEM    = UTC
MEAN_ELEMENT_THEORY = SGP/SGP4

EPOCH          = 2026-04-05T11:45:56.856096
MEAN_MOTION    = 15.10580915
ECCENTRICITY   = .0011693
INCLINATION    = 97.5355
RA_OF_ASC_NODE = 171.4251
ARG_OF_PERICENTER = 191.7975
MEAN_ANOMALY   = 168.2982

EPHEMERIS_TYPE = 0
CLASSIFICATION_TYPE = U
NORAD_CAT_ID   = 68201
ELEMENT_SET_NO = 999
REV_AT_EPOCH   = 307
BSTAR          = .62345E-3
MEAN_MOTION_DOT = .10252E-3
MEAN_MOTION_DDOT = 0

CCSDS_OMM_VERS = 2.0
CREATION_DATE  = 
ORIGINATOR     = 

OBJECT_NAME    = 2026-052E
OBJECT_ID      = 2026-052E
CENTER_NAME    = EARTH
REF_FRAME      = TEME
TIME_SYSTEM    = UTC
MEAN_ELEMENT_THEORY = SGP/SGP4

EPOCH          = 2026-04-05T02:13:35.823072
MEAN_MOTION    = 15.10577677
ECCENTRICITY   = .00104634
INCLINATION    = 97.5345
RA_OF_ASC_NODE = 171.0418
ARG_OF_PERICENTER = 202.2983
MEAN_ANOMALY   = 157.7793

EPHEMERIS_TYPE = 0
CLASSIFICATION_TYPE = U
NORAD_CAT_ID   = 68202
ELEMENT_SET_NO = 999
REV_AT_EPOCH   = 301
BSTAR          = .94665779E-3
MEAN_MOTION_DOT = .15605E-3
MEAN_MOTION_DDOT = 0

CCSDS_OMM_VERS = 2.0
CREATION_DATE  = 
ORIGINATOR     = 

OBJECT_NAME    = 2026-052F
OBJECT_ID      = 2026-052F
CENTER_NAME    = EARTH
REF_FRAME      = TEME
TIME_SYSTEM    = UTC
MEAN_ELEMENT_THEORY = SGP/SGP4

EPOCH          = 2026-04-05T11:41:00.936960
MEAN_MOTION    = 15.10838594
ECCENTRICITY   = .0010685
INCLINATION    = 97.5351
RA_OF_ASC_NODE = 171.4355
ARG_OF_PERICENTER = 188.2691
MEAN_ANOMALY   = 171.8365

EPHEMERIS_TYPE = 0
CLASSIFICATION_TYPE = U
NORAD_CAT_ID   = 68203
ELEMENT_SET_NO = 999
REV_AT_EPOCH   = 307
BSTAR          = .63274E-3
MEAN_MOTION_DOT = .10478E-3
MEAN_MOTION_DDOT = 0

CCSDS_OMM_VERS = 2.0
CREATION_DATE  = 
ORIGINATOR     = 

OBJECT_NAME    = 2026-052G
OBJECT_ID      = 2026-052G
CENTER_NAME    = EARTH
REF_FRAME      = TEME
TIME_SYSTEM    = UTC
MEAN_ELEMENT_THEORY = SGP/SGP4

EPOCH          = 2026-04-05T11:40:05.253888
MEAN_MOTION    = 15.10883553
ECCENTRICITY   = .0010309
INCLINATION    = 97.5361
RA_OF_ASC_NODE = 171.4312
ARG_OF_PERICENTER = 190.8280
MEAN_ANOMALY   = 169.2730

EPHEMERIS_TYPE = 0
CLASSIFICATION_TYPE = U
NORAD_CAT_ID   = 68204
ELEMENT_SET_NO = 999
REV_AT_EPOCH   = 307
BSTAR          = .60389E-3
MEAN_MOTION_DOT = .10008E-3
MEAN_MOTION_DDOT = 0

CCSDS_OMM_VERS = 2.0
CREATION_DATE  = 
ORIGINATOR     = 

OBJECT_NAME    = KZ-11 R/B
OBJECT_ID      = 2026-052H
CENTER_NAME    = EARTH
REF_FRAME      = TEME
TIME_SYSTEM    = UTC
MEAN_ELEMENT_THEORY = SGP/SGP4

EPOCH          = 2026-04-05T12:58:59.215296
MEAN_MOTION    = 14.67711021
ECCENTRICITY   = .0543573
INCLINATION    = 97.3396
RA_OF_ASC_NODE = 170.1185
ARG_OF_PERICENTER = 306.9126
MEAN_ANOMALY   = 48.3433

EPHEMERIS_TYPE = 0
CLASSIFICATION_TYPE = U
NORAD_CAT_ID   = 68205
ELEMENT_SET_NO = 999
REV_AT_EPOCH   = 299
BSTAR          = .37663E-3
MEAN_MOTION_DOT = .24986E-3
MEAN_MOTION_DDOT = .20075E-5

CCSDS_OMM_VERS = 2.0
CREATION_DATE  = 
ORIGINATOR     = 

OBJECT_NAME    = 2026-052J
OBJECT_ID      = 2026-052J
CENTER_NAME    = EARTH
REF_FRAME      = TEME
TIME_SYSTEM    = UTC
MEAN_ELEMENT_THEORY = SGP/SGP4

EPOCH          = 2026-04-05T12:44:40.591104
MEAN_MOTION    = 14.69462972
ECCENTRICITY   = .0537052
INCLINATION    = 97.3393
RA_OF_ASC_NODE = 170.1299
ARG_OF_PERICENTER = 306.9008
MEAN_ANOMALY   = 48.4114

EPHEMERIS_TYPE = 0
CLASSIFICATION_TYPE = U
NORAD_CAT_ID   = 68206
ELEMENT_SET_NO = 999
REV_AT_EPOCH   = 299
BSTAR          = .11749E-2
MEAN_MOTION_DOT = .80753E-3
MEAN_MOTION_DDOT = .29298E-5

CCSDS_OMM_VERS = 2.0
CREATION_DATE  = 
ORIGINATOR     = 

OBJECT_NAME    = STARLINK-36986
OBJECT_ID      = 2026-053A
CENTER_NAME    = EARTH
REF_FRAME      = TEME
TIME_SYSTEM    = UTC
MEAN_ELEMENT_THEORY = SGP/SGP4

EPOCH          = 2026-04-05T10:43:13.530432
MEAN_MOTION    = 15.80923757
ECCENTRICITY   = .000137
INCLINATION    = 97.2846
RA_OF_ASC_NODE = 331.0712
ARG_OF_PERICENTER = 74.9225
MEAN_ANOMALY   = 285.2195

EPHEMERIS_TYPE = 0
CLASSIFICATION_TYPE = U
NORAD_CAT_ID   = 68207
ELEMENT_SET_NO = 999
REV_AT_EPOCH   = 428
BSTAR          = .10576E-2
MEAN_MOTION_DOT = .208375E-2
MEAN_MOTION_DDOT = 0

CCSDS_OMM_VERS = 2.0
CREATION_DATE  = 
ORIGINATOR     = 

OBJECT_NAME    = STARLINK-37009
OBJECT_ID      = 2026-053B
CENTER_NAME    = EARTH
REF_FRAME      = TEME
TIME_SYSTEM    = UTC
MEAN_ELEMENT_THEORY = SGP/SGP4

EPOCH          = 2026-04-05T10:42:09.043200
MEAN_MOTION    = 15.80875780
ECCENTRICITY   = .000145
INCLINATION    = 97.2852
RA_OF_ASC_NODE = 331.0718
ARG_OF_PERICENTER = 105.6781
MEAN_ANOMALY   = 254.4647

EPHEMERIS_TYPE = 0
CLASSIFICATION_TYPE = U
NORAD_CAT_ID   = 68208
ELEMENT_SET_NO = 999
REV_AT_EPOCH   = 428
BSTAR          = .10441E-2
MEAN_MOTION_DOT = .205186E-2
MEAN_MOTION_DDOT = 0

