CZ-6A R/B               
1 68197U 26051B   26095.45629114  .00001300  00000+0  17561-3 0  9995
2 68197 142.0302 348.0785 0187399 243.9783 114.1543 14.56386550  3064
2026-052A               
1 68198U 26052A   26095.49659124  .00010769  00000+0  66326-3 0  9997
2 68198  97.5352 171.4190 0013716 191.9784 168.1121 15.10084473  3078
YUXING-3 06             
1 68199U 26052B   26095.29575696  .00008076  00000+0  49699-3 0  9999
2 68199  97.5353 171.2256 0012704 193.8578 166.2305 15.10207543  3044
2026-052C               
1 68200U 26052C   26095.49282980  .00007301  00000+0  44838-3 0  9995
2 68200  97.5351 171.4238 0012414 195.5113 164.5737 15.10321024  3062
2026-052D               
1 68201U 26052D   26095.49024139  .00010252  00000+0  62345-3 0  9998
2 68201  97.5355 171.4251 0011693 191.7975 168.2982 15.10580915  3074
2026-052E               
1 68202U 26052E   26095.09277573  .00015605  00000+0  94666-3 0  9995
2 68202  97.5345 171.0418 0010463 202.2983 157.7793 15.10577677  3014
2026-052F               
1 68203U 26052F   26095.48681640  .00010478  00000+0  63274-3 0  9997
2 68203  97.5351 171.4355 0010685 188.2691 171.8365 15.10838594  3077
2026-052G               
1 68204U 26052G   26095.48617192  .00010008  00000+0  60389-3 0  9992
2 68204  97.5361 171.4312 0010309 190.8280 169.2730 15.10883553  3070
KZ-11 R/B               
1 68205U 26052H   26095.54096314  .00024986  20075-5  37663-3 0  9996
2 68205  97.3396 170.1185 0543573 306.9126  48.3433 14.67711021  2992
2026-052J               
1 68206U 26052J   26095.53102536  .00080753  29298-5  11749-2 0  9996
2 68206  97.3393 170.1299 0537052 306.9008  48.4114 14.69462972  2997
STARLINK-36986          
1 68207U 26053A   26095.44668438  .00208375  00000+0  10576-2 0  9999
2 68207  97.2846 331.0712 0001370  74.9225 285.2195 15.80923757  4281
STARLINK-37009          
1 68208U 26053B   26095.44593800  .00205186  00000+0  10441-2 0  9998
2 68208  97.2852 331.0718 0001450 105.6781 254.4647 15.80875780  4285
